ORBCOMM FM05 [-]        
1 25117U 97084F   24020.16105352  .00002672  00000+0  84931-3 0  9999
2 25117  45.0164 308.1877 0001194 171.2268 188.8603 14.42039759366311
ORBCOMM FM07 [-]        
1 25119U 97084H   24018.92832751  .00003108  00000+0  98248-3 0  9993
2 25119  45.0150 314.7276 0001668 135.3143 224.7842 14.41949812367048
ORBCOMM FM03 [-]        
1 25158U 98007B   24020.30410935  .00001995  00000+0  78609-3 0  9994
2 25158 107.9726 162.1166 0045086  65.2640 295.3182 14.31732605350420
ORBCOMM FM04 [+]        
1 25159U 98007C   24020.31262556  .00001997  00000+0  78471-3 0  9999
2 25159 107.9712 164.9968 0040616  62.9530 297.5745 14.31988511350598
ORBCOMM FM18 [-]        
1 25414U 98046B   24020.56050985  .00002499  00000+0  91170-3 0  9993
2 25414  44.9940  86.3582 0006051 227.2534 132.7804 14.35350424330379
ORBCOMM FM19 [+]        
1 25415U 98046C   24020.61351795  .00002230  00000+0  82145-3 0  9998
2 25415  44.9949  87.3726 0004695 224.2781 290.3740 14.35195615330349
